{"type":"FeatureCollection","features":[{"type":"Feature","properties":{"numero":1,"nome":"Centro, Crocetta","lp":[45.06367,7.67432]},"geometry":{"type":"Polygon","coordinates":[[[7.66191,45.04682],[7.65986,45.04802],[7.65907,45.04825],[7.6582,45.0483],[7.65414,45.04969],[7.65382,45.04993],[7.65494,45.05154],[7.65569,45.05255],[7.65509,45.05332],[7.65472,45.05417],[7.65459,45.05499],[7.6546,45.05536],[7.65486,45.05653],[7.65513,45.05705],[7.65543,45.05753],[7.6554,45.05769],[7.65686,45.05977],[7.65804,45.06149],[7.65902,45.06288],[7.65961,45.06343],[7.65978,45.06392],[7.66064,45.06519],[7.66111,45.06583],[7.66139,45.0661],[7.66154,45.06644],[7.66194,45.06704],[7.66143,45.06724],[7.66244,45.06865],[7.66407,45.06807],[7.66415,45.06828],[7.6672,45.07266],[7.66725,45.07291],[7.66743,45.07319],[7.66631,45.07359],[7.66669,45.07413],[7.66669,45.07429],[7.66764,45.07562],[7.66746,45.07569],[7.66798,45.07643],[7.66813,45.07654],[7.66824,45.07654],[7.6694,45.07804],[7.67133,45.08079],[7.6738,45.07998],[7.68079,45.07767],[7.68236,45.07719],[7.68197,45.07664],[7.68219,45.07618],[7.6827,45.07599],[7.68235,45.07547],[7.68267,45.07537],[7.68359,45.07677],[7.68554,45.07609],[7.68964,45.07473],[7.69031,45.07399],[7.69166,45.07267],[7.69386,45.07046],[7.69808,45.06618],[7.69869,45.06557],[7.69558,45.06318],[7.69472,45.06251],[7.69505,45.06239],[7.69549,45.06289],[7.69656,45.06373],[7.69674,45.06384],[7.69738,45.06345],[7.69813,45.06294],[7.69803,45.06283],[7.69759,45.06271],[7.69635,45.062],[7.69577,45.06158],[7.69509,45.06087],[7.69423,45.05991],[7.69324,45.05875],[7.69278,45.05809],[7.69261,45.05792],[7.692,45.05814],[7.69194,45.05805],[7.69073,45.0585],[7.68824,45.0594],[7.68781,45.05954],[7.6801,45.06231],[7.6795,45.06154],[7.67905,45.06089],[7.67776,45.05914],[7.67746,45.05857],[7.67723,45.05797],[7.67677,45.0581],[7.67514,45.05587],[7.67434,45.05526],[7.67388,45.05477],[7.67359,45.05436],[7.67333,45.05435],[7.67273,45.0534],[7.67226,45.05271],[7.66943,45.04823],[7.66741,45.04496],[7.66677,45.04397],[7.66653,45.04407],[7.66209,45.04674],[7.66191,45.04682]]]}},{"type":"Feature","properties":{"numero":2,"nome":"Santa Rita, Mirafiori Nord, Mirafiori Sud","lp":[45.03065,7.62644]},"geometry":{"type":"Polygon","coordinates":[[[7.62563,45.0573],[7.6301,45.05637],[7.63333,45.05582],[7.63435,45.05563],[7.64194,45.05406],[7.64198,45.05416],[7.64347,45.05402],[7.64447,45.05398],[7.64574,45.05399],[7.64704,45.0541],[7.64807,45.05426],[7.64895,45.05444],[7.64918,45.05469],[7.65509,45.05332],[7.65569,45.05255],[7.65494,45.05154],[7.65382,45.04993],[7.65414,45.04969],[7.6582,45.0483],[7.65907,45.04825],[7.65986,45.04802],[7.66191,45.04682],[7.66209,45.04674],[7.65628,45.04156],[7.65352,45.03909],[7.64648,45.03272],[7.64624,45.03255],[7.64531,45.03176],[7.64276,45.02947],[7.64178,45.02857],[7.63972,45.02674],[7.63891,45.026],[7.63762,45.02488],[7.63618,45.02357],[7.63598,45.02341],[7.63509,45.02285],[7.63602,45.02254],[7.64014,45.0211],[7.64344,45.01858],[7.6436,45.01848],[7.64475,45.0182],[7.64792,45.01754],[7.64808,45.01754],[7.64813,45.01776],[7.64926,45.01973],[7.65044,45.02192],[7.65646,45.01978],[7.65797,45.0194],[7.65802,45.01898],[7.65816,45.01839],[7.65845,45.01753],[7.65976,45.01781],[7.66019,45.01892],[7.66192,45.01858],[7.6611,45.01646],[7.65889,45.01626],[7.6582,45.01463],[7.65749,45.01304],[7.65646,45.0105],[7.65512,45.00731],[7.65403,45.00794],[7.6533,45.00793],[7.65255,45.00806],[7.65247,45.00822],[7.6524,45.00871],[7.6522,45.00888],[7.65192,45.00889],[7.65126,45.00871],[7.65059,45.00827],[7.64981,45.00792],[7.64905,45.008],[7.64781,45.00785],[7.64691,45.00755],[7.64649,45.0072],[7.64621,45.00706],[7.64594,45.00718],[7.64547,45.00698],[7.64455,45.00704],[7.64439,45.00679],[7.64384,45.0069],[7.64239,45.00698],[7.64116,45.00733],[7.64043,45.00828],[7.64006,45.00846],[7.63904,45.00884],[7.63821,45.00895],[7.63799,45.00888],[7.63715,45.00818],[7.6367,45.00809],[7.63637,45.0082],[7.63449,45.00958],[7.63353,45.01012],[7.63247,45.0103],[7.63152,45.01039],[7.63082,45.0104],[7.62902,45.01036],[7.62859,45.00963],[7.62799,45.00912],[7.6279,45.00882],[7.62757,45.00833],[7.62651,45.0081],[7.62519,45.00808],[7.62415,45.00813],[7.62298,45.00831],[7.62136,45.0088],[7.61997,45.00941],[7.61882,45.00997],[7.61814,45.01025],[7.61719,45.01042],[7.61625,45.01068],[7.61564,45.01074],[7.61522,45.01084],[7.61436,45.01118],[7.61394,45.01109],[7.61341,45.01083],[7.61048,45.00982],[7.61005,45.00979],[7.60908,45.01011],[7.60803,45.01109],[7.60738,45.01106],[7.60656,45.01123],[7.6059,45.01179],[7.60454,45.01236],[7.60337,45.01282],[7.6026,45.01328],[7.60109,45.01351],[7.59962,45.01306],[7.59883,45.01258],[7.59824,45.0121],[7.59666,45.0122],[7.5964,45.01228],[7.59616,45.01256],[7.59638,45.01314],[7.59688,45.0141],[7.59663,45.01455],[7.59547,45.01499],[7.59493,45.01493],[7.59467,45.01445],[7.59414,45.01408],[7.59312,45.01403],[7.59239,45.01455],[7.59154,45.01539],[7.59091,45.01604],[7.58976,45.01638],[7.59238,45.01726],[7.59188,45.0189],[7.59184,45.01936],[7.59196,45.01973],[7.59269,45.01991],[7.59338,45.01989],[7.59401,45.01977],[7.59445,45.01974],[7.59764,45.01925],[7.60051,45.01878],[7.6032,45.02304],[7.6049,45.02581],[7.60662,45.02855],[7.60735,45.02978],[7.6061,45.02946],[7.60155,45.0283],[7.5988,45.03004],[7.59846,45.02992],[7.59808,45.02989],[7.59774,45.02995],[7.59463,45.03165],[7.59391,45.0321],[7.59258,45.03271],[7.59079,45.03349],[7.58968,45.03405],[7.58903,45.03433],[7.58797,45.03459],[7.58584,45.03544],[7.58427,45.03609],[7.5835,45.03653],[7.58354,45.03657],[7.58287,45.0373],[7.58106,45.03829],[7.58011,45.03963],[7.57783,45.04183],[7.58031,45.0443],[7.58118,45.04393],[7.58137,45.04397],[7.58215,45.04371],[7.58224,45.04358],[7.58215,45.04308],[7.58376,45.04215],[7.58392,45.04208],[7.58671,45.04485],[7.58959,45.0435],[7.59041,45.04315],[7.59184,45.04248],[7.59257,45.04212],[7.59262,45.04169],[7.59271,45.04158],[7.59438,45.04083],[7.59623,45.04003],[7.59673,45.03985],[7.59817,45.03957],[7.59945,45.03901],[7.60003,45.03879],[7.60446,45.03666],[7.60516,45.03628],[7.6065,45.03562],[7.6073,45.03542],[7.60812,45.03516],[7.60912,45.0348],[7.61161,45.03375],[7.61408,45.03872],[7.61438,45.03948],[7.61459,45.03986],[7.6155,45.03947],[7.6156,45.03931],[7.61644,45.03901],[7.61653,45.03914],[7.6174,45.04087],[7.61762,45.04169],[7.61839,45.04376],[7.61816,45.04392],[7.61859,45.04447],[7.61892,45.04472],[7.61935,45.04487],[7.62035,45.04461],[7.6212,45.04592],[7.62059,45.0461],[7.61941,45.04619],[7.61841,45.04653],[7.61789,45.04677],[7.61875,45.04832],[7.61735,45.04895],[7.61819,45.04942],[7.61933,45.05023],[7.62024,45.05109],[7.62084,45.0515],[7.62158,45.05186],[7.62276,45.05223],[7.62397,45.05475],[7.62509,45.05743],[7.62563,45.0573]]]}},{"type":"Feature","properties":{"numero":3,"nome":"San Paolo, Cenisia, Pozzo Strada, Cit Turin, Borgata Lesna","lp":[45.06636,7.6372]},"geometry":{"type":"Polygon","coordinates":[[[7.60608,45.07401],[7.61958,45.07457],[7.63561,45.07522],[7.64332,45.07554],[7.65625,45.07607],[7.66452,45.07639],[7.66425,45.07605],[7.66501,45.07578],[7.66497,45.07641],[7.66813,45.07654],[7.66798,45.07643],[7.66746,45.07569],[7.66764,45.07562],[7.66669,45.07429],[7.66669,45.07413],[7.66631,45.07359],[7.66743,45.07319],[7.66725,45.07291],[7.6672,45.07266],[7.66415,45.06828],[7.66407,45.06807],[7.66244,45.06865],[7.66143,45.06724],[7.66194,45.06704],[7.66154,45.06644],[7.66139,45.0661],[7.66111,45.06583],[7.66064,45.06519],[7.65978,45.06392],[7.65961,45.06343],[7.65902,45.06288],[7.65804,45.06149],[7.65686,45.05977],[7.6554,45.05769],[7.65543,45.05753],[7.65513,45.05705],[7.65486,45.05653],[7.6546,45.05536],[7.65459,45.05499],[7.65472,45.05417],[7.65509,45.05332],[7.64918,45.05469],[7.64895,45.05444],[7.64807,45.05426],[7.64704,45.0541],[7.64574,45.05399],[7.64447,45.05398],[7.64347,45.05402],[7.64198,45.05416],[7.64194,45.05406],[7.63435,45.05563],[7.63333,45.05582],[7.6301,45.05637],[7.62563,45.0573],[7.62509,45.05743],[7.6253,45.05766],[7.62508,45.05966],[7.62313,45.05946],[7.62114,45.05937],[7.62022,45.05937],[7.6186,45.05898],[7.61616,45.05925],[7.61568,45.05925],[7.61379,45.05981],[7.61274,45.06011],[7.61216,45.06023],[7.61157,45.06028],[7.61032,45.06052],[7.61012,45.06045],[7.60978,45.06011],[7.6076,45.06054],[7.60938,45.065],[7.61025,45.0652],[7.61127,45.06553],[7.61299,45.06583],[7.61413,45.06619],[7.61375,45.06638],[7.61354,45.06659],[7.61307,45.06682],[7.61164,45.06723],[7.60977,45.06796],[7.60936,45.06817],[7.60848,45.07027],[7.60841,45.07036],[7.6066,45.07077],[7.60604,45.07079],[7.60472,45.07103],[7.6039,45.07113],[7.60347,45.07113],[7.60433,45.07231],[7.60558,45.07399],[7.60608,45.07401]]]}},{"type":"Feature","properties":{"numero":4,"nome":"San Donato, Campidoglio, Parella","lp":[45.08422,7.64043]},"geometry":{"type":"Polygon","coordinates":[[[7.60695,45.076],[7.61072,45.08165],[7.61132,45.08257],[7.61141,45.08252],[7.61138,45.08404],[7.61123,45.08468],[7.61113,45.08595],[7.61121,45.08629],[7.61234,45.08739],[7.61297,45.08815],[7.61333,45.08876],[7.61377,45.08885],[7.61492,45.08881],[7.6154,45.08896],[7.61578,45.08932],[7.6173,45.0903],[7.61791,45.09077],[7.61823,45.0912],[7.61835,45.0915],[7.61837,45.09202],[7.61898,45.09339],[7.61962,45.09512],[7.61864,45.09673],[7.61513,45.09921],[7.61477,45.09948],[7.61689,45.09978],[7.62284,45.09743],[7.63239,45.09367],[7.6457,45.08926],[7.65118,45.08745],[7.65151,45.08736],[7.65381,45.09079],[7.65444,45.0917],[7.65489,45.0914],[7.65496,45.0915],[7.65722,45.09163],[7.66221,45.09194],[7.66287,45.09196],[7.66285,45.09216],[7.66294,45.09532],[7.66667,45.09528],[7.66829,45.09527],[7.67141,45.09523],[7.67126,45.09501],[7.67034,45.09068],[7.67103,45.09036],[7.67266,45.09013],[7.67344,45.08984],[7.67428,45.0897],[7.67474,45.08971],[7.67575,45.08986],[7.67673,45.08996],[7.6779,45.08959],[7.67755,45.08938],[7.67638,45.08765],[7.6762,45.08775],[7.67288,45.08301],[7.67133,45.08079],[7.6694,45.07804],[7.66824,45.07654],[7.66813,45.07654],[7.66497,45.07641],[7.66501,45.07578],[7.66425,45.07605],[7.66452,45.07639],[7.65625,45.07607],[7.64332,45.07554],[7.63561,45.07522],[7.61958,45.07457],[7.60608,45.07401],[7.60558,45.07399],[7.60695,45.076]]]}},{"type":"Feature","properties":{"numero":5,"nome":"Borgo Vittoria, Madonna di Campagna, Lucento, Vallette","lp":[45.10505,7.65698]},"geometry":{"type":"Polygon","coordinates":[[[7.61442,45.09973],[7.61423,45.10001],[7.61178,45.10714],[7.6126,45.10744],[7.61334,45.10776],[7.61402,45.10796],[7.61428,45.10815],[7.61579,45.10822],[7.61592,45.10815],[7.61875,45.10817],[7.61899,45.10809],[7.62019,45.10795],[7.62158,45.10823],[7.62263,45.10841],[7.62265,45.10879],[7.6226,45.11019],[7.62258,45.1134],[7.62288,45.11382],[7.62448,45.11374],[7.6264,45.11358],[7.62782,45.11349],[7.62968,45.11334],[7.63432,45.1129],[7.63788,45.11263],[7.63916,45.11254],[7.6438,45.1122],[7.64642,45.11204],[7.64767,45.11218],[7.64991,45.11214],[7.65374,45.11268],[7.65447,45.1128],[7.65451,45.1148],[7.65463,45.11489],[7.65348,45.11592],[7.65303,45.11636],[7.6529,45.11785],[7.6528,45.11981],[7.65271,45.12074],[7.65267,45.12256],[7.65261,45.12323],[7.65359,45.12386],[7.65442,45.12476],[7.65518,45.125],[7.65557,45.12505],[7.65562,45.12459],[7.65589,45.12419],[7.65751,45.12266],[7.65799,45.12223],[7.65886,45.12158],[7.65922,45.12139],[7.65991,45.12115],[7.66104,45.12042],[7.66093,45.12003],[7.66282,45.11978],[7.66389,45.11958],[7.66448,45.1196],[7.66521,45.11972],[7.66626,45.12004],[7.66733,45.12046],[7.66849,45.12105],[7.66893,45.12136],[7.66943,45.12156],[7.67013,45.12165],[7.67094,45.12188],[7.67289,45.12235],[7.67339,45.12259],[7.67383,45.12234],[7.67554,45.12061],[7.6763,45.11992],[7.67748,45.11891],[7.67782,45.11883],[7.67825,45.11845],[7.6798,45.11762],[7.6807,45.11728],[7.68112,45.11719],[7.68172,45.11732],[7.68247,45.11766],[7.68297,45.11777],[7.68374,45.11772],[7.68515,45.1175],[7.68572,45.11748],[7.6853,45.11743],[7.68421,45.11707],[7.68389,45.11701],[7.68253,45.1171],[7.68195,45.11708],[7.68152,45.11697],[7.68075,45.11693],[7.6802,45.11697],[7.67978,45.11689],[7.67981,45.11678],[7.68131,45.11679],[7.68209,45.11669],[7.6828,45.11664],[7.68347,45.11673],[7.6841,45.11687],[7.68454,45.11704],[7.68557,45.11733],[7.68596,45.11737],[7.68644,45.11731],[7.68707,45.1171],[7.68804,45.11641],[7.68931,45.11577],[7.68982,45.11546],[7.69007,45.11507],[7.69066,45.11478],[7.69112,45.11464],[7.69234,45.11442],[7.69288,45.11424],[7.69481,45.11399],[7.69563,45.11405],[7.69576,45.11342],[7.69635,45.11336],[7.6967,45.11342],[7.69702,45.11415],[7.69733,45.11416],[7.69705,45.11348],[7.69722,45.11366],[7.69759,45.1138],[7.69775,45.11416],[7.69762,45.11368],[7.69725,45.11164],[7.69709,45.11091],[7.69677,45.10999],[7.69593,45.10845],[7.69473,45.1068],[7.69309,45.10515],[7.69229,45.10442],[7.69169,45.10373],[7.6882,45.10038],[7.68701,45.09925],[7.68581,45.09837],[7.68107,45.09396],[7.67958,45.09241],[7.67887,45.0915],[7.67933,45.09127],[7.67937,45.09108],[7.67922,45.09087],[7.67871,45.09048],[7.67864,45.09013],[7.6779,45.08959],[7.67673,45.08996],[7.67575,45.08986],[7.67474,45.08971],[7.67428,45.0897],[7.67344,45.08984],[7.67266,45.09013],[7.67103,45.09036],[7.67034,45.09068],[7.67126,45.09501],[7.67141,45.09523],[7.66829,45.09527],[7.66667,45.09528],[7.66294,45.09532],[7.66285,45.09216],[7.66287,45.09196],[7.66221,45.09194],[7.65722,45.09163],[7.65496,45.0915],[7.65489,45.0914],[7.65444,45.0917],[7.65381,45.09079],[7.65151,45.08736],[7.65118,45.08745],[7.6457,45.08926],[7.63239,45.09367],[7.62284,45.09743],[7.61689,45.09978],[7.61477,45.09948],[7.61442,45.09973]]]}},{"type":"Feature","properties":{"numero":6,"nome":"Barriera di Milano, Regio Parco, Barca, Bertolla, Falchera, Rebaudengo, Villaretto","lp":[45.11265,7.70465]},"geometry":{"type":"MultiPolygon","coordinates":[[[[7.67871,45.09048],[7.67922,45.09087],[7.67937,45.09108],[7.67933,45.09127],[7.67887,45.0915],[7.67958,45.09241],[7.68107,45.09396],[7.68581,45.09837],[7.68701,45.09925],[7.6882,45.10038],[7.69169,45.10373],[7.69229,45.10442],[7.69309,45.10515],[7.69473,45.1068],[7.69593,45.10845],[7.69677,45.10999],[7.69709,45.11091],[7.69725,45.11164],[7.69762,45.11368],[7.69775,45.11416],[7.69759,45.1138],[7.69722,45.11366],[7.69705,45.11348],[7.69733,45.11416],[7.69702,45.11415],[7.6967,45.11342],[7.69635,45.11336],[7.69576,45.11342],[7.69563,45.11405],[7.69481,45.11399],[7.69288,45.11424],[7.69234,45.11442],[7.69112,45.11464],[7.69066,45.11478],[7.69007,45.11507],[7.68982,45.11546],[7.68931,45.11577],[7.68804,45.11641],[7.68707,45.1171],[7.68644,45.11731],[7.68596,45.11737],[7.68557,45.11733],[7.68454,45.11704],[7.6841,45.11687],[7.68347,45.11673],[7.6828,45.11664],[7.68209,45.11669],[7.68131,45.11679],[7.67981,45.11678],[7.67978,45.11689],[7.6802,45.11697],[7.68075,45.11693],[7.68152,45.11697],[7.68195,45.11708],[7.68253,45.1171],[7.68389,45.11701],[7.68421,45.11707],[7.6853,45.11743],[7.68572,45.11748],[7.68515,45.1175],[7.68374,45.11772],[7.68297,45.11777],[7.68247,45.11766],[7.68172,45.11732],[7.68112,45.11719],[7.6807,45.11728],[7.6798,45.11762],[7.67825,45.11845],[7.67782,45.11883],[7.67748,45.11891],[7.6763,45.11992],[7.67554,45.12061],[7.67383,45.12234],[7.67339,45.12259],[7.67289,45.12235],[7.67094,45.12188],[7.67013,45.12165],[7.66943,45.12156],[7.66893,45.12136],[7.66849,45.12105],[7.66733,45.12046],[7.66626,45.12004],[7.66521,45.11972],[7.66448,45.1196],[7.66389,45.11958],[7.66282,45.11978],[7.66093,45.12003],[7.66104,45.12042],[7.65991,45.12115],[7.65922,45.12139],[7.65886,45.12158],[7.65799,45.12223],[7.65751,45.12266],[7.65589,45.12419],[7.65562,45.12459],[7.65557,45.12505],[7.65518,45.125],[7.65442,45.12476],[7.65629,45.12683],[7.6571,45.12775],[7.65709,45.12817],[7.65665,45.12893],[7.65607,45.12943],[7.65573,45.12963],[7.65531,45.12913],[7.6546,45.12955],[7.65489,45.12995],[7.65485,45.13],[7.6553,45.13047],[7.65433,45.13147],[7.65572,45.13326],[7.65506,45.13351],[7.65468,45.13381],[7.65427,45.13403],[7.65415,45.13419],[7.65335,45.13473],[7.65302,45.13487],[7.65286,45.13503],[7.65377,45.13501],[7.65616,45.13489],[7.6568,45.13481],[7.65755,45.13477],[7.65851,45.13496],[7.65947,45.13499],[7.66078,45.13508],[7.66161,45.13489],[7.6634,45.13402],[7.66374,45.13526],[7.66261,45.13545],[7.66194,45.1356],[7.6611,45.13617],[7.66131,45.13691],[7.66178,45.13793],[7.66244,45.13918],[7.66299,45.13951],[7.66326,45.13958],[7.66328,45.13999],[7.6637,45.13994],[7.66394,45.14016],[7.6642,45.14022],[7.66484,45.14009],[7.66522,45.13983],[7.66589,45.13915],[7.66646,45.13904],[7.66653,45.13889],[7.66613,45.13866],[7.66627,45.1385],[7.66653,45.13845],[7.66746,45.13844],[7.66789,45.13851],[7.66823,45.13843],[7.66882,45.13802],[7.6693,45.13795],[7.6697,45.13795],[7.67027,45.13767],[7.6706,45.13766],[7.67114,45.13777],[7.67171,45.13817],[7.67234,45.13776],[7.67247,45.13796],[7.67394,45.13737],[7.67515,45.1371],[7.67638,45.13727],[7.67679,45.13797],[7.67758,45.13819],[7.67802,45.13855],[7.6785,45.13821],[7.67874,45.13789],[7.67921,45.13778],[7.68056,45.13883],[7.68165,45.13774],[7.68203,45.13789],[7.68326,45.1373],[7.6834,45.13719],[7.68317,45.13653],[7.6834,45.13606],[7.68361,45.1358],[7.68401,45.1355],[7.68583,45.13516],[7.68604,45.13493],[7.68611,45.1346],[7.68669,45.1343],[7.68661,45.13399],[7.68738,45.13396],[7.68763,45.13388],[7.69016,45.13298],[7.69049,45.13353],[7.69061,45.13458],[7.69406,45.13437],[7.69388,45.13298],[7.69634,45.13254],[7.69634,45.13096],[7.69937,45.1313],[7.7012,45.13149],[7.70349,45.13164],[7.70373,45.13164],[7.70684,45.13215],[7.70936,45.13256],[7.7098,45.13352],[7.71112,45.13317],[7.71125,45.13371],[7.712,45.13695],[7.71226,45.13716],[7.7125,45.13721],[7.71263,45.13709],[7.71302,45.1373],[7.71317,45.13753],[7.71382,45.13756],[7.71397,45.13743],[7.71391,45.13728],[7.71424,45.13707],[7.71481,45.13734],[7.71492,45.13722],[7.71504,45.13741],[7.71543,45.13732],[7.71547,45.13752],[7.71627,45.13773],[7.71647,45.13801],[7.71667,45.13807],[7.71755,45.13802],[7.71756,45.13789],[7.718,45.13793],[7.71815,45.13806],[7.71908,45.13775],[7.71946,45.13789],[7.71962,45.13807],[7.7203,45.13788],[7.7203,45.13772],[7.72076,45.13767],[7.72136,45.13737],[7.72162,45.13739],[7.72214,45.13716],[7.72224,45.13698],[7.72251,45.13701],[7.72298,45.13688],[7.72344,45.13695],[7.72363,45.13717],[7.72397,45.13714],[7.72441,45.13697],[7.72479,45.13673],[7.72463,45.13579],[7.72453,45.13549],[7.72417,45.13542],[7.72385,45.13422],[7.72372,45.13383],[7.72345,45.13271],[7.7229,45.13281],[7.72283,45.13243],[7.72285,45.13162],[7.72123,45.13135],[7.72099,45.13092],[7.72094,45.13052],[7.72015,45.13057],[7.71841,45.13054],[7.71811,45.1305],[7.71822,45.13039],[7.71784,45.12895],[7.71776,45.1288],[7.71736,45.12731],[7.71921,45.12675],[7.71953,45.12657],[7.72071,45.12555],[7.72125,45.12512],[7.72139,45.1251],[7.72242,45.12625],[7.72446,45.1269],[7.72491,45.12695],[7.72628,45.12652],[7.7271,45.12618],[7.72962,45.12522],[7.72952,45.12489],[7.72887,45.12429],[7.72918,45.12414],[7.72979,45.124],[7.73043,45.12367],[7.73061,45.12365],[7.73158,45.12381],[7.73242,45.12365],[7.73361,45.12382],[7.73393,45.12383],[7.73445,45.12367],[7.73534,45.12377],[7.73574,45.12371],[7.73656,45.12352],[7.73665,45.12339],[7.73651,45.12313],[7.73617,45.12213],[7.73591,45.12202],[7.73511,45.11957],[7.73556,45.11951],[7.7385,45.1192],[7.73856,45.11889],[7.73847,45.11823],[7.73695,45.11727],[7.73665,45.11326],[7.73658,45.11285],[7.7373,45.11266],[7.73788,45.11279],[7.73879,45.11306],[7.73948,45.11307],[7.73989,45.11288],[7.73992,45.11111],[7.74012,45.11006],[7.73985,45.10991],[7.74009,45.10971],[7.73997,45.10954],[7.74034,45.10955],[7.74129,45.10947],[7.74161,45.10939],[7.74172,45.10927],[7.74292,45.10868],[7.74345,45.10836],[7.74384,45.10819],[7.74429,45.1076],[7.74433,45.10738],[7.74394,45.10673],[7.74606,45.10579],[7.74641,45.10558],[7.74738,45.10483],[7.74799,45.1045],[7.74915,45.10403],[7.75052,45.10344],[7.75013,45.10256],[7.74858,45.10239],[7.74869,45.10188],[7.74963,45.10135],[7.74938,45.10056],[7.74862,45.09923],[7.74804,45.09939],[7.74702,45.09976],[7.74673,45.09994],[7.7455,45.10049],[7.74552,45.10038],[7.745,45.09973],[7.74461,45.09988],[7.74259,45.10037],[7.74193,45.10049],[7.74132,45.10078],[7.74062,45.09995],[7.74012,45.09894],[7.73985,45.09827],[7.73866,45.09853],[7.73816,45.09812],[7.73766,45.09754],[7.73735,45.09737],[7.737,45.09731],[7.73649,45.09589],[7.73667,45.09544],[7.73648,45.09519],[7.73618,45.09509],[7.73208,45.09445],[7.73122,45.09461],[7.73047,45.09485],[7.72941,45.0932],[7.72735,45.09397],[7.72586,45.09424],[7.72441,45.09415],[7.72322,45.09375],[7.72185,45.09268],[7.72109,45.09194],[7.72053,45.09104],[7.72006,45.08964],[7.71993,45.08899],[7.72069,45.08894],[7.72064,45.08805],[7.7207,45.0873],[7.72091,45.08663],[7.7212,45.08595],[7.72195,45.08485],[7.72303,45.08342],[7.72335,45.08267],[7.72403,45.08179],[7.72422,45.0816],[7.72483,45.08064],[7.72504,45.0804],[7.72546,45.07974],[7.72607,45.07913],[7.72631,45.07881],[7.72706,45.07812],[7.72772,45.07748],[7.7281,45.07717],[7.72846,45.07673],[7.72841,45.07652],[7.72856,45.07634],[7.72861,45.07551],[7.7275,45.0755],[7.72742,45.07592],[7.72718,45.07646],[7.72694,45.07682],[7.72619,45.07759],[7.72544,45.07821],[7.72508,45.07834],[7.72478,45.07827],[7.72457,45.07807],[7.72402,45.07771],[7.72344,45.0775],[7.72201,45.07715],[7.72183,45.07749],[7.72375,45.07796],[7.72414,45.07821],[7.72443,45.0785],[7.72474,45.07861],[7.72475,45.07876],[7.72435,45.0793],[7.7239,45.07982],[7.72356,45.08013],[7.723,45.08087],[7.7222,45.08172],[7.72198,45.08211],[7.72121,45.08273],[7.7209,45.08316],[7.7208,45.08339],[7.72043,45.08376],[7.71975,45.08501],[7.71919,45.08638],[7.71927,45.08688],[7.71921,45.08735],[7.71912,45.08759],[7.71909,45.0881],[7.71901,45.08833],[7.71905,45.08902],[7.71876,45.08907],[7.71685,45.08769],[7.71446,45.08597],[7.71357,45.0854],[7.71124,45.08435],[7.71102,45.08433],[7.71079,45.08418],[7.70529,45.08171],[7.70064,45.07966],[7.69737,45.08332],[7.69579,45.08507],[7.69544,45.08528],[7.69359,45.08631],[7.69112,45.08767],[7.69035,45.08806],[7.68871,45.08885],[7.68828,45.08903],[7.68654,45.08921],[7.68366,45.08954],[7.67864,45.09013],[7.67871,45.09048]]],[[[7.74371,45.1228],[7.74428,45.12357],[7.7445,45.12378],[7.74537,45.12439],[7.74599,45.12469],[7.74706,45.12388],[7.74835,45.12464],[7.74917,45.12389],[7.7494,45.12335],[7.74962,45.12229],[7.74946,45.12203],[7.74894,45.12146],[7.74875,45.12096],[7.7482,45.12044],[7.74622,45.11904],[7.74451,45.11804],[7.74338,45.11729],[7.74059,45.11927],[7.74044,45.11947],[7.7418,45.12034],[7.7431,45.12129],[7.74285,45.12228],[7.74344,45.12253],[7.74371,45.1228]]]]}},{"type":"Feature","properties":{"numero":7,"nome":"Aurora, Vanchiglia, Sassi, Madonna del Pilone","lp":[45.07188,7.72889]},"geometry":{"type":"Polygon","coordinates":[[[7.67288,45.08301],[7.6762,45.08775],[7.67638,45.08765],[7.67755,45.08938],[7.6779,45.08959],[7.67864,45.09013],[7.68366,45.08954],[7.68654,45.08921],[7.68828,45.08903],[7.68871,45.08885],[7.69035,45.08806],[7.69112,45.08767],[7.69359,45.08631],[7.69544,45.08528],[7.69579,45.08507],[7.69737,45.08332],[7.70064,45.07966],[7.70529,45.08171],[7.71079,45.08418],[7.71102,45.08433],[7.71124,45.08435],[7.71357,45.0854],[7.71446,45.08597],[7.71685,45.08769],[7.71876,45.08907],[7.71905,45.08902],[7.71901,45.08833],[7.71909,45.0881],[7.71912,45.08759],[7.71921,45.08735],[7.71927,45.08688],[7.71919,45.08638],[7.71975,45.08501],[7.72043,45.08376],[7.7208,45.08339],[7.7209,45.08316],[7.72121,45.08273],[7.72198,45.08211],[7.7222,45.08172],[7.723,45.08087],[7.72356,45.08013],[7.7239,45.07982],[7.72435,45.0793],[7.72475,45.07876],[7.72474,45.07861],[7.72443,45.0785],[7.72414,45.07821],[7.72375,45.07796],[7.72183,45.07749],[7.72201,45.07715],[7.72344,45.0775],[7.72402,45.07771],[7.72457,45.07807],[7.72478,45.07827],[7.72508,45.07834],[7.72544,45.07821],[7.72619,45.07759],[7.72694,45.07682],[7.72718,45.07646],[7.72742,45.07592],[7.7275,45.0755],[7.72861,45.07551],[7.72856,45.07634],[7.72841,45.07652],[7.72846,45.07673],[7.7281,45.07717],[7.72772,45.07748],[7.72706,45.07812],[7.72631,45.07881],[7.72607,45.07913],[7.72546,45.07974],[7.72504,45.0804],[7.72483,45.08064],[7.72422,45.0816],[7.72403,45.08179],[7.72335,45.08267],[7.72303,45.08342],[7.72195,45.08485],[7.7212,45.08595],[7.72091,45.08663],[7.7207,45.0873],[7.72064,45.08805],[7.72069,45.08894],[7.71993,45.08899],[7.72006,45.08964],[7.72053,45.09104],[7.72109,45.09194],[7.72185,45.09268],[7.72322,45.09375],[7.72441,45.09415],[7.72586,45.09424],[7.72735,45.09397],[7.72941,45.0932],[7.73047,45.09485],[7.73122,45.09461],[7.73208,45.09445],[7.73618,45.09509],[7.73648,45.09519],[7.73667,45.09544],[7.73649,45.09589],[7.737,45.09731],[7.73735,45.09737],[7.73766,45.09754],[7.73816,45.09812],[7.73866,45.09853],[7.73985,45.09827],[7.74012,45.09894],[7.74062,45.09995],[7.74132,45.10078],[7.74193,45.10049],[7.74259,45.10037],[7.74461,45.09988],[7.745,45.09973],[7.74552,45.10038],[7.7455,45.10049],[7.74673,45.09994],[7.74702,45.09976],[7.74804,45.09939],[7.74862,45.09923],[7.74938,45.10056],[7.74963,45.10135],[7.74869,45.10188],[7.74858,45.10239],[7.75013,45.10256],[7.75052,45.10344],[7.75236,45.10264],[7.75137,45.10047],[7.75134,45.10017],[7.75132,45.09863],[7.75093,45.09731],[7.74784,45.09543],[7.7458,45.0944],[7.74277,45.09311],[7.74162,45.09261],[7.74244,45.09197],[7.74291,45.09154],[7.74385,45.09084],[7.74399,45.09064],[7.74401,45.09027],[7.7444,45.08961],[7.74435,45.08946],[7.74458,45.08909],[7.74477,45.089],[7.74512,45.08862],[7.74565,45.08856],[7.74615,45.08805],[7.74655,45.08798],[7.74674,45.08761],[7.74663,45.08718],[7.74695,45.0869],[7.74693,45.08669],[7.7474,45.08621],[7.74788,45.08612],[7.74817,45.08576],[7.74849,45.08569],[7.74856,45.08531],[7.74889,45.08496],[7.74913,45.08492],[7.74925,45.08475],[7.74952,45.08461],[7.74958,45.08443],[7.74988,45.08429],[7.75005,45.08409],[7.75063,45.08377],[7.75092,45.08355],[7.75117,45.08363],[7.75157,45.08346],[7.75234,45.08324],[7.754,45.08304],[7.75427,45.08316],[7.75468,45.08316],[7.75495,45.0828],[7.75533,45.08261],[7.7556,45.08262],[7.756,45.08241],[7.75619,45.08222],[7.75692,45.08211],[7.75734,45.08229],[7.75781,45.08233],[7.7584,45.0823],[7.76048,45.08237],[7.76224,45.08258],[7.76276,45.08258],[7.76333,45.08248],[7.76357,45.08238],[7.76446,45.08258],[7.76506,45.08241],[7.76643,45.08131],[7.7669,45.08097],[7.76896,45.08167],[7.76906,45.08153],[7.76917,45.08087],[7.76903,45.08067],[7.76769,45.08034],[7.76738,45.08018],[7.76748,45.07973],[7.76775,45.07935],[7.76799,45.07912],[7.76857,45.0788],[7.76951,45.07857],[7.7697,45.0784],[7.76999,45.07828],[7.7707,45.07813],[7.77114,45.07815],[7.77164,45.07843],[7.77229,45.07843],[7.77295,45.07828],[7.77335,45.07789],[7.76721,45.07082],[7.76191,45.06474],[7.75971,45.06225],[7.75615,45.05816],[7.75579,45.05775],[7.74817,45.05114],[7.74024,45.04471],[7.73604,45.04106],[7.73399,45.03909],[7.73373,45.03918],[7.73291,45.03916],[7.73214,45.03846],[7.73171,45.03843],[7.73108,45.0383],[7.73043,45.03825],[7.73019,45.03882],[7.7296,45.03848],[7.7294,45.03812],[7.72895,45.03812],[7.72848,45.03837],[7.72783,45.03823],[7.72742,45.03808],[7.72683,45.03796],[7.72619,45.03815],[7.72596,45.03839],[7.72597,45.03896],[7.72584,45.03903],[7.72595,45.03938],[7.72589,45.03981],[7.72621,45.04006],[7.72606,45.04028],[7.72563,45.04048],[7.72473,45.04078],[7.72452,45.04111],[7.72388,45.04174],[7.72378,45.04205],[7.72366,45.04212],[7.72311,45.04218],[7.72296,45.04202],[7.72256,45.04204],[7.72209,45.04188],[7.72193,45.04189],[7.72129,45.04221],[7.72124,45.04229],[7.72118,45.04318],[7.72127,45.04373],[7.72201,45.04393],[7.72242,45.04397],[7.72261,45.04435],[7.72251,45.04459],[7.7227,45.04494],[7.72242,45.04592],[7.72273,45.04628],[7.72262,45.04649],[7.72266,45.04673],[7.72218,45.04731],[7.7218,45.04804],[7.72157,45.04834],[7.72139,45.04886],[7.72148,45.0493],[7.72128,45.0498],[7.72116,45.05024],[7.72072,45.05075],[7.72163,45.05101],[7.72184,45.05122],[7.72156,45.05137],[7.72201,45.052],[7.7218,45.05199],[7.72184,45.05236],[7.72048,45.05324],[7.72044,45.05334],[7.72081,45.05342],[7.72151,45.05326],[7.72242,45.05345],[7.7226,45.05358],[7.72287,45.05412],[7.72283,45.05427],[7.7225,45.0546],[7.72161,45.05522],[7.72151,45.0554],[7.72158,45.05578],[7.72138,45.05651],[7.72114,45.05689],[7.72058,45.05725],[7.72011,45.05768],[7.71969,45.05795],[7.71958,45.05815],[7.71958,45.05846],[7.71944,45.05869],[7.7192,45.05875],[7.71874,45.05873],[7.71813,45.05892],[7.71737,45.05968],[7.71725,45.05997],[7.71694,45.06031],[7.71639,45.06067],[7.71591,45.06091],[7.71559,45.06147],[7.71556,45.06232],[7.71559,45.06256],[7.71551,45.06295],[7.71525,45.06321],[7.71476,45.06343],[7.71434,45.06354],[7.71327,45.06395],[7.7127,45.06404],[7.71187,45.06379],[7.71146,45.06425],[7.71157,45.06431],[7.70896,45.0672],[7.70871,45.06746],[7.70783,45.06897],[7.70733,45.06872],[7.70608,45.06834],[7.7038,45.06768],[7.7025,45.06723],[7.70083,45.06832],[7.69808,45.06618],[7.69386,45.07046],[7.69166,45.07267],[7.69031,45.07399],[7.68964,45.07473],[7.68554,45.07609],[7.68359,45.07677],[7.68267,45.07537],[7.68235,45.07547],[7.6827,45.07599],[7.68219,45.07618],[7.68197,45.07664],[7.68236,45.07719],[7.68079,45.07767],[7.6738,45.07998],[7.67133,45.08079],[7.67288,45.08301]]]}},{"type":"Feature","properties":{"numero":8,"nome":"San Salvario, Cavoretto, Borgo Po, Nizza Millefonti, Lingotto, Filadelfia","lp":[45.03938,7.68698]},"geometry":{"type":"Polygon","coordinates":[[[7.66653,45.04407],[7.66677,45.04397],[7.66741,45.04496],[7.66943,45.04823],[7.67226,45.05271],[7.67273,45.0534],[7.67333,45.05435],[7.67359,45.05436],[7.67388,45.05477],[7.67434,45.05526],[7.67514,45.05587],[7.67677,45.0581],[7.67723,45.05797],[7.67746,45.05857],[7.67776,45.05914],[7.67905,45.06089],[7.6795,45.06154],[7.6801,45.06231],[7.68781,45.05954],[7.68824,45.0594],[7.69073,45.0585],[7.69194,45.05805],[7.692,45.05814],[7.69261,45.05792],[7.69278,45.05809],[7.69324,45.05875],[7.69423,45.05991],[7.69509,45.06087],[7.69577,45.06158],[7.69635,45.062],[7.69759,45.06271],[7.69803,45.06283],[7.69813,45.06294],[7.69738,45.06345],[7.69674,45.06384],[7.69656,45.06373],[7.69549,45.06289],[7.69505,45.06239],[7.69472,45.06251],[7.69558,45.06318],[7.69869,45.06557],[7.69808,45.06618],[7.70083,45.06832],[7.7025,45.06723],[7.7038,45.06768],[7.70608,45.06834],[7.70733,45.06872],[7.70783,45.06897],[7.70871,45.06746],[7.70896,45.0672],[7.71157,45.06431],[7.71146,45.06425],[7.71187,45.06379],[7.7127,45.06404],[7.71327,45.06395],[7.71434,45.06354],[7.71476,45.06343],[7.71525,45.06321],[7.71551,45.06295],[7.71559,45.06256],[7.71556,45.06232],[7.71559,45.06147],[7.71591,45.06091],[7.71639,45.06067],[7.71694,45.06031],[7.71725,45.05997],[7.71737,45.05968],[7.71813,45.05892],[7.71874,45.05873],[7.7192,45.05875],[7.71944,45.05869],[7.71958,45.05846],[7.71958,45.05815],[7.71969,45.05795],[7.72011,45.05768],[7.72058,45.05725],[7.72114,45.05689],[7.72138,45.05651],[7.72158,45.05578],[7.72151,45.0554],[7.72161,45.05522],[7.7225,45.0546],[7.72283,45.05427],[7.72287,45.05412],[7.7226,45.05358],[7.72242,45.05345],[7.72151,45.05326],[7.72081,45.05342],[7.72044,45.05334],[7.72048,45.05324],[7.72184,45.05236],[7.7218,45.05199],[7.72201,45.052],[7.72156,45.05137],[7.72184,45.05122],[7.72163,45.05101],[7.72072,45.05075],[7.72116,45.05024],[7.72128,45.0498],[7.72148,45.0493],[7.72139,45.04886],[7.72157,45.04834],[7.7218,45.04804],[7.72218,45.04731],[7.72266,45.04673],[7.72262,45.04649],[7.72273,45.04628],[7.72242,45.04592],[7.7227,45.04494],[7.72251,45.04459],[7.72261,45.04435],[7.72242,45.04397],[7.72201,45.04393],[7.72127,45.04373],[7.72118,45.04318],[7.72124,45.04229],[7.72129,45.04221],[7.72193,45.04189],[7.72209,45.04188],[7.72256,45.04204],[7.72296,45.04202],[7.72311,45.04218],[7.72366,45.04212],[7.72378,45.04205],[7.72388,45.04174],[7.72452,45.04111],[7.72473,45.04078],[7.72563,45.04048],[7.72606,45.04028],[7.72621,45.04006],[7.72589,45.03981],[7.72595,45.03938],[7.72584,45.03903],[7.72597,45.03896],[7.72596,45.03839],[7.72619,45.03815],[7.72683,45.03796],[7.72742,45.03808],[7.72783,45.03823],[7.72848,45.03837],[7.72895,45.03812],[7.7294,45.03812],[7.7296,45.03848],[7.73019,45.03882],[7.73043,45.03825],[7.73108,45.0383],[7.73171,45.03843],[7.73214,45.03846],[7.73291,45.03916],[7.73373,45.03918],[7.73399,45.03909],[7.73262,45.03776],[7.72714,45.03416],[7.72262,45.03121],[7.71819,45.0299],[7.71682,45.02948],[7.71391,45.02864],[7.71042,45.02771],[7.70811,45.02695],[7.70765,45.02393],[7.70737,45.02406],[7.70688,45.02397],[7.70653,45.02399],[7.70592,45.02391],[7.70533,45.02411],[7.70479,45.02419],[7.70454,45.02416],[7.70414,45.02429],[7.70354,45.024],[7.70337,45.02404],[7.70298,45.02398],[7.70239,45.02399],[7.70188,45.02388],[7.7016,45.02371],[7.70115,45.02375],[7.70088,45.02394],[7.70032,45.02404],[7.70011,45.02349],[7.69963,45.02331],[7.6986,45.02322],[7.69804,45.0231],[7.6979,45.02302],[7.69736,45.02317],[7.6967,45.02313],[7.69602,45.02314],[7.69566,45.02294],[7.69487,45.02331],[7.69451,45.02343],[7.69391,45.02371],[7.69299,45.02392],[7.69195,45.02403],[7.69085,45.02441],[7.69029,45.02457],[7.68985,45.02464],[7.6881,45.02451],[7.68704,45.02456],[7.68512,45.024],[7.68393,45.02332],[7.68283,45.02206],[7.68244,45.02194],[7.68234,45.02154],[7.68252,45.02135],[7.68241,45.02096],[7.68202,45.02036],[7.68162,45.0202],[7.68134,45.01987],[7.68128,45.01941],[7.68095,45.01904],[7.68086,45.01862],[7.68044,45.01824],[7.67959,45.0177],[7.67931,45.01761],[7.67779,45.01621],[7.67637,45.01637],[7.67345,45.01674],[7.67284,45.01681],[7.67056,45.01709],[7.66862,45.01698],[7.66525,45.01681],[7.6611,45.01646],[7.66192,45.01858],[7.66019,45.01892],[7.65976,45.01781],[7.65845,45.01753],[7.65816,45.01839],[7.65802,45.01898],[7.65797,45.0194],[7.65646,45.01978],[7.65044,45.02192],[7.64926,45.01973],[7.64813,45.01776],[7.64808,45.01754],[7.64792,45.01754],[7.64475,45.0182],[7.6436,45.01848],[7.64344,45.01858],[7.64014,45.0211],[7.63602,45.02254],[7.63509,45.02285],[7.63598,45.02341],[7.63618,45.02357],[7.63762,45.02488],[7.63891,45.026],[7.63972,45.02674],[7.64178,45.02857],[7.64276,45.02947],[7.64531,45.03176],[7.64624,45.03255],[7.64648,45.03272],[7.65352,45.03909],[7.65628,45.04156],[7.66209,45.04674],[7.66653,45.04407]]]}}]}